{
  "type": "FeatureCollection",
  "features": [
    {
      "type": "Feature",
      "properties": {
        "norad_id": 35744,
        "name": "IRIDIUM 33 DEB",
        "group": "iridium-33-debris",
        "lat": -59.0535215432446,
        "lon": -39.16587559156628,
        "alt_km": 666.5749521697035,
        "timestamp": "2025-12-09T07:41:33.596211+00:00",
        "meta_object_name": "IRIDIUM 33 DEB",
        "meta_object_id": "1997-051RX",
        "meta_epoch": "2025-12-07T05:20:52.292544",
        "meta_mean_motion": 14.70878971,
        "meta_eccentricity": 0.00196187,
        "meta_inclination": 86.3289,
        "meta_ra_of_asc_node": 327.9285,
        "meta_arg_of_pericenter": 212.7832,
        "meta_mean_anomaly": 147.2168,
        "meta_ephemeris_type": 0,
        "meta_classification_type": "U",
        "meta_norad_cat_id": 35744,
        "meta_element_set_no": 999,
        "meta_rev_at_epoch": 87250,
        "meta_bstar": 0.0018572793,
        "meta_mean_motion_dot": 0.00011424,
        "meta_mean_motion_ddot": 0,
        "tle_line1": "1 35744U 97051RX  25341.22282746  .00011424  00000+0  18573-2 0  9990",
        "tle_line2": "2 35744  86.3289 327.9285 0019618 212.7832 147.2168 14.70878971872500"
      },
      "geometry": {
        "type": "Point",
        "coordinates": [
          -39.16587559156628,
          -59.0535215432446
        ]
      }
    },
    {
      "type": "Feature",
      "properties": {
        "norad_id": 35797,
        "name": "IRIDIUM 33 DEB",
        "group": "iridium-33-debris",
        "lat": -64.36464077469137,
        "lon": 159.2174454021401,
        "alt_km": 627.588277059961,
        "timestamp": "2025-12-09T07:41:33.596240+00:00",
        "meta_object_name": "IRIDIUM 33 DEB",
        "meta_object_id": "1997-051SF",
        "meta_epoch": "2025-12-07T17:20:13.337376",
        "meta_mean_motion": 14.82554733,
        "meta_eccentricity": 0.00125987,
        "meta_inclination": 86.336,
        "meta_ra_of_asc_node": 332.2775,
        "meta_arg_of_pericenter": 164.89,
        "meta_mean_anomaly": 195.2701,
        "meta_ephemeris_type": 0,
        "meta_classification_type": "U",
        "meta_norad_cat_id": 35797,
        "meta_element_set_no": 999,
        "meta_rev_at_epoch": 87266,
        "meta_bstar": 0.0031386009,
        "meta_mean_motion_dot": 0.0002535,
        "meta_mean_motion_ddot": 0,
        "tle_line1": "1 35797U 97051SF  25341.72237659  .00025350  00000+0  31386-2 0  9996",
        "tle_line2": "2 35797  86.3360 332.2775 0012598 164.8900 195.2701 14.82554733872667"
      },
      "geometry": {
        "type": "Point",
        "coordinates": [
          159.2174454021401,
          -64.36464077469137
        ]
      }
    },
    {
      "type": "Feature",
      "properties": {
        "norad_id": 35806,
        "name": "IRIDIUM 33 DEB",
        "group": "iridium-33-debris",
        "lat": 37.54425320353524,
        "lon": -160.68168778205083,
        "alt_km": 693.1368659975078,
        "timestamp": "2025-12-09T07:41:33.596254+00:00",
        "meta_object_name": "IRIDIUM 33 DEB",
        "meta_object_id": "1997-051SQ",
        "meta_epoch": "2025-12-06T09:49:43.789440",
        "meta_mean_motion": 14.5725267,
        "meta_eccentricity": 0.0016158,
        "meta_inclination": 86.344,
        "meta_ra_of_asc_node": 23.4162,
        "meta_arg_of_pericenter": 94.3917,
        "meta_mean_anomaly": 265.9138,
        "meta_ephemeris_type": 0,
        "meta_classification_type": "U",
        "meta_norad_cat_id": 35806,
        "meta_element_set_no": 999,
        "meta_rev_at_epoch": 86232,
        "meta_bstar": 0.0020153904,
        "meta_mean_motion_dot": 9.149e-05,
        "meta_mean_motion_ddot": 0,
        "tle_line1": "1 35806U 97051SQ  25340.40953460  .00009149  00000+0  20154-2 0  9995",
        "tle_line2": "2 35806  86.3440  23.4162 0016158  94.3917 265.9138 14.57252670862325"
      },
      "geometry": {
        "type": "Point",
        "coordinates": [
          -160.68168778205083,
          37.54425320353524
        ]
      }
    },
    {
      "type": "Feature",
      "properties": {
        "norad_id": 35809,
        "name": "IRIDIUM 33 DEB",
        "group": "iridium-33-debris",
        "lat": -77.97470897751406,
        "lon": -40.64266216207599,
        "alt_km": 644.3167122001114,
        "timestamp": "2025-12-09T07:41:33.596265+00:00",
        "meta_object_name": "IRIDIUM 33 DEB",
        "meta_object_id": "1997-051ST",
        "meta_epoch": "2025-12-06T06:48:24.450912",
        "meta_mean_motion": 14.75488502,
        "meta_eccentricity": 0.00096585,
        "meta_inclination": 86.3276,
        "meta_ra_of_asc_node": 338.2877,
        "meta_arg_of_pericenter": 270.8385,
        "meta_mean_anomaly": 89.1727,
        "meta_ephemeris_type": 0,
        "meta_classification_type": "U",
        "meta_norad_cat_id": 35809,
        "meta_element_set_no": 999,
        "meta_rev_at_epoch": 86712,
        "meta_bstar": 0.0029776157,
        "meta_mean_motion_dot": 0.00020329,
        "meta_mean_motion_ddot": 0,
        "tle_line1": "1 35809U 97051ST  25340.28361633  .00020329  00000+0  29776-2 0  9991",
        "tle_line2": "2 35809  86.3276 338.2877 0009658 270.8385  89.1727 14.75488502867120"
      },
      "geometry": {
        "type": "Point",
        "coordinates": [
          -40.64266216207599,
          -77.97470897751406
        ]
      }
    },
    {
      "type": "Feature",
      "properties": {
        "norad_id": 35846,
        "name": "IRIDIUM 33 DEB",
        "group": "iridium-33-debris",
        "lat": 77.73184697876553,
        "lon": -136.64822172986644,
        "alt_km": 738.5920121726203,
        "timestamp": "2025-12-09T07:41:33.596275+00:00",
        "meta_object_name": "IRIDIUM 33 DEB",
        "meta_object_id": "1997-051SW",
        "meta_epoch": "2025-12-08T22:54:05.598144",
        "meta_mean_motion": 14.43136324,
        "meta_eccentricity": 0.00185591,
        "meta_inclination": 86.3751,
        "meta_ra_of_asc_node": 60.4571,
        "meta_arg_of_pericenter": 182.732,
        "meta_mean_anomaly": 177.3783,
        "meta_ephemeris_type": 0,
        "meta_classification_type": "U",
        "meta_norad_cat_id": 35846,
        "meta_element_set_no": 999,
        "meta_rev_at_epoch": 71274,
        "meta_bstar": 0.0008250857,
        "meta_mean_motion_dot": 2.794e-05,
        "meta_mean_motion_ddot": 0,
        "tle_line1": "1 35846U 97051SW  25342.95423146  .00002794  00000+0  82509-3 0  9996",
        "tle_line2": "2 35846  86.3751  60.4571 0018559 182.7320 177.3783 14.43136324712740"
      },
      "geometry": {
        "type": "Point",
        "coordinates": [
          -136.64822172986644,
          77.73184697876553
        ]
      }
    },
    {
      "type": "Feature",
      "properties": {
        "norad_id": 35848,
        "name": "IRIDIUM 33 DEB",
        "group": "iridium-33-debris",
        "lat": -17.997878526378237,
        "lon": -161.1565508053172,
        "alt_km": 634.1217809585096,
        "timestamp": "2025-12-09T07:41:33.596286+00:00",
        "meta_object_name": "IRIDIUM 33 DEB",
        "meta_object_id": "1997-051SY",
        "meta_epoch": "2025-12-06T20:19:25.547808",
        "meta_mean_motion": 14.78448907,
        "meta_eccentricity": 0.00071808,
        "meta_inclination": 86.3929,
        "meta_ra_of_asc_node": 18.7802,
        "meta_arg_of_pericenter": 219.4527,
        "meta_mean_anomaly": 140.6171,
        "meta_ephemeris_type": 0,
        "meta_classification_type": "U",
        "meta_norad_cat_id": 35848,
        "meta_element_set_no": 999,
        "meta_rev_at_epoch": 66603,
        "meta_bstar": 0.0027695976,
        "meta_mean_motion_dot": 0.0002026,
        "meta_mean_motion_ddot": 0,
        "tle_line1": "1 35848U 97051SY  25340.84682347  .00020260  00000+0  27696-2 0  9997",
        "tle_line2": "2 35848  86.3929  18.7802 0007180 219.4527 140.6171 14.78448907666032"
      },
      "geometry": {
        "type": "Point",
        "coordinates": [
          -161.1565508053172,
          -17.997878526378237
        ]
      }
    },
    {
      "type": "Feature",
      "properties": {
        "norad_id": 35850,
        "name": "IRIDIUM 33 DEB",
        "group": "iridium-33-debris",
        "lat": 19.029445961010374,
        "lon": 164.53946352429702,
        "alt_km": 629.1119764213572,
        "timestamp": "2025-12-09T07:41:33.596296+00:00",
        "meta_object_name": "IRIDIUM 33 DEB",
        "meta_object_id": "1997-051TA",
        "meta_epoch": "2025-12-06T07:30:15.621984",
        "meta_mean_motion": 14.78601393,
        "meta_eccentricity": 0.00083892,
        "meta_inclination": 86.3487,
        "meta_ra_of_asc_node": 347.1693,
        "meta_arg_of_pericenter": 210.267,
        "meta_mean_anomaly": 149.8067,
        "meta_ephemeris_type": 0,
        "meta_classification_type": "U",
        "meta_norad_cat_id": 35850,
        "meta_element_set_no": 999,
        "meta_rev_at_epoch": 71262,
        "meta_bstar": 0.0028291764,
        "meta_mean_motion_dot": 0.00020775,
        "meta_mean_motion_ddot": 0,
        "tle_line1": "1 35850U 97051TA  25340.31268081  .00020775  00000+0  28292-2 0  9991",
        "tle_line2": "2 35850  86.3487 347.1693 0008389 210.2670 149.8067 14.78601393712623"
      },
      "geometry": {
        "type": "Point",
        "coordinates": [
          164.53946352429702,
          19.029445961010374
        ]
      }
    }
  ]
}